NORAD_CAT_ID,TLE_LINE0,TLE_LINE1,TLE_LINE2,CREATION_DATE,OBJECT_NAME,OBJECT_ID,EPOCH,MEAN_MOTION,ECCENTRICITY,INCLINATION,RA_OF_ASC_NODE,ARG_OF_PERICENTER,MEAN_ANOMALY,REV_AT_EPOCH,BSTAR,MEAN_MOTION_DOT,MEAN_MOTION_DDOT,SEMIMAJOR_AXIS,PERIOD,APOAPSIS,PERIAPSIS,OBJECT_TYPE,COUNTRY_CODE,LAUNCH_DATE,SITE,DECAY_DATE,LAUNCH_YEAR,LAUNCH_SEQ,EPOCH_FINAL,ORBIT_CLASS,EVENT,DURATION,RCS_SIZE
575,0 DELTA 1 R/B,1 00575U 63013B   25193.60618179  .00000064  00000-0  12120-2 0  9996,2 00575  42.7718 285.0102 4013025 160.7474 349.0541  6.40267653454233,12/07/2025 17:51,DELTA 1 R/B,1963-013B,12/07/2025 14:32,6.40267653,0.4013025,42.7718,285.0102,160.7474,349.0541,45423,0.001212,6.4e-07,0.0,12250.697,224.906,10788.797,956.327,ROCKET BODY,US,07/05/1963,AFETR,,1963,13,13/07/2025 05:05,MEO,0,22713,LARGE
576,0 MERCURY ATLAS 9,1 00576U 63015  A 63135.72080739  .00862827 +00000-0 +00000-0 0  9990,2 00576 032.5430 289.4700 0077884 072.4399 288.2710 16.21829859000037,15/08/2004 23:35,MERCURY ATLAS 9,1963-015A,15/05/1963 17:17,16.21829859,0.0077884,32.543,289.47,72.4399,288.271,3,0.0,0.00862827,0.0,6592.729,88.788,265.941,163.247,PAYLOAD,US,06/04/1963,AFETR,16/05/1963,1963,15,16/05/1963 10:35,LEO,1,40,MEDIUM
577,0 ATLAS D R/B,1 00577U 63015  B 63135.72003740  .00877773 +00000-0 +00000-0 0  9994,2 00577 032.5430 289.4700 0045022 072.4399 287.9111 16.29878604000038,15/08/2004 23:35,ATLAS D R/B,1963-015B,15/05/1963 17:16,16.29878604,0.0045022,32.543,289.47,72.4399,287.9111,3,0.0,0.00877773,0.0,6571.007,88.35,222.456,163.288,ROCKET BODY,US,28/03/1963,AFETR,16/05/1963,1963,15,16/05/1963 10:33,LEO,1,49,LARGE
578,0 FTV 1110,1 00578U 63016  A 63144.89057110  .03958004 +14313-1 +00000-0 0  9997,2 00578 074.5443 268.8398 0191126 125.2276 236.6373 16.07440212000959,15/08/2004 23:35,FTV 1110,1963-016A,24/05/1963 21:22,16.07440212,0.0191126,74.5443,268.8398,125.2276,236.6373,95,0.0,0.03958004,0.014313,6632.016,89.583,380.636,127.125,PAYLOAD,US,21/05/1963,AFWTR,27/05/1963,1963,16,25/05/1963 18:44,LEO,1,6,MEDIUM
579,0 ERS 5,1 00579U 63014B   11315.11307386  .80842682 -16601-5  67952-1 0  9993,2 00579 084.2315 103.3398 0037370 114.6743 249.6932 16.12051688565727,10/11/2011 20:10,ERS 5,1963-014B,11/11/2011 02:42,16.12051688,0.003737,84.2315,103.3398,114.6743,249.6932,56572,0.067952,0.80842682,-1.66e-06,6619.362,89.327,265.963,216.49,PAYLOAD,US,09/05/1963,AFWTR,11/11/2011,1963,14,11/11/2011 05:25,LEO,1,17718,MEDIUM
580,0 COSMOS 17,1 00580U 63017  A 65150.94355857  .01313470 +55067-2 +00000-0 0  9997,2 00580 048.9350 301.0376 0027664 283.5862 076.0988 16.29168189114851,15/08/2004 23:35,COSMOS 17,1963-017A,30/05/1965 22:38,16.29168189,0.0027664,48.935,301.0376,283.5862,76.0988,11485,0.0,0.0131347,0.0055067,6572.917,88.388,212.965,176.599,PAYLOAD,CIS,23/05/1963,PKMTR,02/06/1965,1963,17,31/05/1965 21:17,LEO,1,741,MEDIUM
581,0 SL-7 DEB,1 00581U 63017  B 63149.57162807  .00538250 +00000-0 +00000-0 0  9993,2 00581 048.9941 193.1663 0328025 135.4026 227.2832 15.30394801001147,15/08/2004 23:35,SL-7 DEB,1963-017B,29/05/1963 13:43,15.30394801,0.0328025,48.9941,193.1663,135.4026,227.2832,114,0.0,0.0053825,0.0,6852.774,94.093,699.428,249.851,DEBRIS,CIS,25/05/1963,PKMTR,26/08/1963,1963,17,30/05/1963 03:26,LEO,1,93,SMALL
582,0 SL-7 DEB,1 00582U 63017  C 65128.29360579  .01489516 +56295-2 +00000-0 0  9998,2 00582 049.1564 209.2124 0018202 012.2137 347.9010 16.06206392109666,15/08/2004 23:35,SL-7 DEB,1963-017C,08/05/1965 07:02,16.06206392,0.0018202,49.1564,209.2124,12.2137,347.901,10966,0.0,0.01489516,0.0056295,6635.411,89.652,269.354,245.199,DEBRIS,CIS,27/05/1963,PKMTR,12/05/1965,1963,17,08/05/1965 14:05,LEO,1,716,SMALL
583,0 SL-7 DEB,1 00583U 63017  D 63148.46839354  .00342793 +00000-0 +00000-0 0  9995,2 00583 049.0725 198.7038 0333321 135.3380 227.3950 15.26529673000979,15/08/2004 23:35,SL-7 DEB,1963-017D,28/05/1963 11:14,15.26529673,0.0333321,49.0725,198.7038,135.338,227.395,97,0.0,0.00342793,0.0,6864.337,94.331,715.005,257.399,DEBRIS,CIS,29/05/1963,PKMTR,30/08/1963,1963,17,28/05/1963 22:28,LEO,1,93,SMALL
584,0 SL-7 DEB,1 00584U 63017  E 63154.48623534  .00657333 +00000-0 +00000-0 0  9995,2 00584 048.9805 169.1705 0345431 156.0896 205.5534 15.25562681001889,15/08/2004 23:35,SL-7 DEB,1963-017E,03/06/1963 11:40,15.25562681,0.0345431,48.9805,169.1705,156.0896,205.5534,188,0.0,0.00657333,0.0,6867.237,94.391,726.318,251.887,DEBRIS,CIS,31/05/1963,PKMTR,25/06/1963,1963,17,03/06/1963 23:20,LEO,1,25,SMALL
585,0 SL-7 DEB,1 00585U 63017  F 63263.78699397  .00012946 +00000-0 +00000-0 0  9995,2 00585 049.3244 130.0298 0326314 142.3601 219.9682 15.05939202014272,15/08/2004 23:35,SL-7 DEB,1963-017F,20/09/1963 18:53,15.05939202,0.0326314,49.3244,130.0298,142.3601,219.9682,1427,0.0,0.00012946,0.0,6926.765,95.621,774.66,322.6,DEBRIS,CIS,02/06/1963,PKMTR,30/09/1963,1963,17,21/09/1963 13:46,LEO,1,120,SMALL
586,0 COSMOS 18,1 00586U 63018  A 63150.39515611  .00114836 +00000-0 +00000-0 0  9996,2 00586 064.9076 053.6491 0056674 034.0597 326.3030 16.11999511000962,15/08/2004 23:35,COSMOS 18,1963-018A,30/05/1963 09:29,16.11999511,0.0056674,64.9076,53.6491,34.0597,326.303,96,0.0,0.00114836,0.0,6619.505,89.33,278.885,203.854,PAYLOAD,CIS,04/03/1963,PKMTR,02/06/1963,1963,18,30/05/1963 18:58,LEO,1,90,MEDIUM
588,0 SL-7 R/B,1 00588U 63017  G 64091.03875231  .01542116 +00000-0 +00000-0 0  9997,2 00588 049.0105 027.3145 0033552 100.5311 259.8443 16.15552232048653,15/08/2004 23:35,SL-7 R/B,1963-017G,31/03/1964 00:55,16.15552232,0.0033552,49.0105,27.3145,100.5311,259.8443,4865,0.0,0.01542116,0.0,6609.796,89.133,253.839,209.484,ROCKET BODY,CIS,04/06/1963,PKMTR,02/04/1964,1963,17,31/03/1964 01:51,LEO,1,303,LARGE
589,0 DASH 1,1 00589U 63014D   25193.49158832  .00000034  00000-0  14742-1 0  9992,2 00589  87.3290 222.7280 0089270 325.7803  33.7321  8.65625918964424,12/07/2025 17:51,DASH 1,1963-014D,12/07/2025 11:47,8.65625918,0.008927,87.329,222.728,325.7803,33.7321,96442,0.014742,3.4e-07,0.0,10019.553,166.354,3730.862,3551.973,PAYLOAD,US,09/05/1963,AFWTR,,1963,14,12/07/2025 23:35,MEO,0,22711,LARGE
590,0 THOR AGENA D,1 00590U 63019  A 63191.01688312  .03605271 +00000-0 +00000-0 0  9996,2 00590 081.8245 293.2803 0041582 036.2573 324.0305 16.27815124004320,15/08/2004 23:35,THOR AGENA D,1963-019A,10/07/1963 00:24,16.27815124,0.0041582,81.8245,293.2803,36.2573,324.0305,432,0.0,0.03605271,0.0,6576.559,88.462,225.77,171.077,PAYLOAD,US,10/06/1963,AFWTR,11/07/1963,1963,19,10/07/1963 00:48,LEO,1,31,MEDIUM
591,0 VOSTOK 5,1 00591U 63020  A 63169.83488702  .02300263 +00000-0 +00000-0 0  9997,2 00591 064.9214 100.9515 0004112 068.5983 291.4084 16.41679134000719,15/08/2004 23:35,VOSTOK 5,1963-020A,18/06/1963 20:02,16.41679134,0.0004112,64.9214,100.9515,68.5983,291.4084,71,0.0,0.02300263,0.0,6539.48,87.715,164.034,158.656,PAYLOAD,CIS,12/06/1963,PKMTR,19/06/1963,1963,20,19/06/1963 16:04,LEO,1,7,MEDIUM
592,0 SL-3 R/B,1 00592U 63020  B 63167.26861090  .07532995 +00000-0 +00000-0 0  9992,2 00592 064.8547 110.7020 0046146 109.5786 250.9212 16.46806304000290,15/08/2004 23:35,SL-3 R/B,1963-020B,16/06/1963 06:26,16.46806304,0.0046146,64.8547,110.702,109.5786,250.9212,29,0.0,0.07532995,0.0,6525.9,87.441,177.879,117.65,ROCKET BODY,CIS,14/06/1963,PKMTR,16/06/1963,1963,20,16/06/1963 12:53,LEO,1,2,LARGE
593,0 THOR AGENA D R/B,1 00593U 63021  A 63218.03083910  .03927129 +20173-1 +00000-0 0  9990,2 00593 069.9007 054.2334 0114407 070.5217 290.7319 16.16664298007951,15/08/2004 23:35,THOR AGENA D R/B,1963-021A,06/08/1963 00:44,16.16664298,0.0114407,69.9007,54.2334,70.5217,290.7319,795,0.0,0.03927129,0.020173,6606.765,89.072,304.216,153.044,ROCKET BODY,US,16/06/1963,AFWTR,07/08/1963,1963,21,06/08/1963 01:28,LEO,1,52,LARGE
594,0 TRANSIT 5A3,1 00594U 63022  A 90215.58230050  .40259105 +45725-5 +13329-2 0  9995,2 00594 089.7819 261.2018 0016375 246.0841 115.2096 16.43038142448731,17/08/2004 14:43,TRANSIT 5A3,1963-022A,03/08/1990 13:58,16.43038142,0.0016375,89.7819,261.2018,246.0841,115.2096,44873,0.0013329,0.40259105,4.57e-06,6535.874,87.642,168.441,147.036,PAYLOAD,US,16/06/1963,AFWTR,03/08/1990,1963,22,04/08/1990 03:57,LEO,1,9910,MEDIUM
595,0 VOSTOK 6,1 00595U 63023  A 63169.77883834  .00945882 +00000-0 +00000-0 0  9992,2 00595 064.9184 073.1054 0021863 078.4674 281.7784 16.35626644000391,15/08/2004 23:35,VOSTOK 6,1963-023A,18/06/1963 18:41,16.35626644,0.0021863,64.9184,73.1054,78.4674,281.7784,39,0.0,0.00945882,0.0,6555.603,88.039,191.8,163.135,PAYLOAD,CIS,13/04/1963,PKMTR,19/06/1963,1963,23,19/06/1963 13:23,LEO,1,67,MEDIUM
596,0 SL-3 R/B,1 00596U 63023  B 63167.82032418  .04351828 +00000-0 +00000-0 0  9996,2 00596 065.0804 080.7332 0045995 075.6109 284.8991 16.29732442000076,15/08/2004 23:35,SL-3 R/B,1963-023B,16/06/1963 19:41,16.29732442,0.0045995,65.0804,80.7332,75.6109,284.8991,7,0.0,0.04351828,0.0,6571.4,88.358,223.49,163.039,ROCKET BODY,CIS,17/04/1963,PKMTR,18/06/1963,1963,23,17/06/1963 15:22,LEO,1,62,LARGE
597,0 SURCAL 1B,1 00597U 63021  F 63183.42833099  .03686597 +00000-0 +00000-0 0  9996,2 00597 069.8179 149.2232 0195338 122.8534 239.0790 15.94418885002601,15/08/2004 23:35,SURCAL 1B,1963-021F,02/07/1963 10:16,15.94418885,0.0195338,69.8179,149.2232,122.8534,239.079,260,0.0,0.03686597,0.0,6668.075,90.315,420.193,159.687,PAYLOAD,US,18/06/1963,AFWTR,05/07/1963,1963,21,02/07/1963 20:33,LEO,1,17,MEDIUM
598,0 FTV 1292,1 00598U 63021  E 63207.60264849  .05118429 +12838-1 +00000-0 0  9994,2 00598 069.8781 082.1116 0082834 087.0508 273.9235 16.24579157006357,15/08/2004 23:35,FTV 1292,1963-021E,26/07/1963 14:27,16.24579157,0.0082834,69.8781,82.1116,87.0508,273.9235,635,0.0,0.05118429,0.012838,6585.289,88.638,261.703,152.605,PAYLOAD,US,20/06/1963,AFWTR,27/07/1963,1963,21,27/07/1963 04:55,LEO,1,37,MEDIUM
